ORBCOMM FM103           
1 40091U 14040F   24189.52401302  .00000670  00000+0  18563-3 0  9992
2 40091  47.0041 203.8921 0001106 164.1724 195.9196 14.56738321513829
ORBCOMM FM114           
1 41179U 15081A   24189.28079294  .00000939  00000+0  24491-3 0  9995
2 41179  47.0027 114.2767 0001429 222.6367 137.4407 14.56817131454158
ORBCOMM FM119           
1 41180U 15081B   24189.52835847  .00000863  00000+0  22861-3 0  9993
2 41180  47.0023  22.3234 0001922 262.4557  97.6109 14.56722553455447
ORBCOMM FM105           
1 41181U 15081C   24189.51119158  .00000425  00000+0  16731-3 0  9996
2 41181  47.0032 354.6436 0002346 225.2063 134.8627 14.44464818451015
ORBCOMM FM110           
1 41182U 15081D   24189.12123864  .00001141  00000+0  28966-3 0  9992
2 41182  47.0016 114.4360 0001943   5.9127 354.1780 14.56781474454004
ORBCOMM FM118           
1 41183U 15081E   24189.16760196  .00001002  00000+0  25901-3 0  9994
2 41183  47.0039 114.5400 0002174   4.3574 355.7329 14.56793205454115
ORBCOMM FM112           
1 41184U 15081F   24189.57369582  .00001219  00000+0  30754-3 0  9996
2 41184  47.0006  21.3122 0002099 242.5553 117.5118 14.56706808455399
ORBCOMM FM113           
1 41185U 15081G   24189.00226333  .00001184  00000+0  29973-3 0  9993
2 41185  47.0025  24.2818 0001774 252.8192 107.2499 14.56703801455294
